ONEWEB-0235             
1 48771U 21045E   25068.79831428 -.00000096  00000+0 -28971-3 0  9998
2 48771  87.9138 351.6936 0002497  79.5295 280.6116 13.15549042183322
ONEWEB-0242             
1 48772U 21045F   25068.79197244 -.00000010  00000+0 -61831-4 0  9999
2 48772  87.9137 351.6807 0002018  82.1295 278.0064 13.15549224183367
ONEWEB-0241             
1 48773U 21045G   25068.85536077  .00000127  00000+0  30249-3 0  9993
2 48773  87.9143 351.7385 0002107  70.5227 289.6131 13.15548955183286
ONEWEB-0243             
1 48774U 21045H   25068.81098581 -.00000180  00000+0 -51097-3 0  9998
2 48774  87.9145 351.7102 0002413  81.4477 278.6927 13.15550356183306
ONEWEB-0222             
1 48775U 21045J   25068.79434661 -.00000073  00000+0 -22700-3 0  9999
2 48775  87.9136 351.6883 0001958  74.6599 285.4747 13.15549805183341
ONEWEB-0244             
1 48776U 21045K   25068.82047962 -.00000407  00000+0 -11140-2 0  9994
2 48776  87.9132 351.6622 0001993  82.9130 277.2227 13.15547149183915
ONEWEB-0247             
1 48777U 21045L   25068.81731274 -.00000345  00000+0 -94971-3 0  9995
2 48777  87.9140 351.7243 0002869  80.2729 279.8726 13.15547247183352
ONEWEB-0245             
1 48778U 21045M   25068.81257018 -.00000115  00000+0 -33839-3 0  9996
2 48778  87.9136 351.6980 0001933  71.4771 288.6569 13.15549886183326
